{
  "type": "FeatureCollection",
  "features": [
    {
      "type": "Feature",
      "properties": {
        "norad_id": 67019,
        "name": "STARLINK-35688",
        "group": "last-30-days",
        "lat": 28.904579766012656,
        "lon": -66.26745149058792,
        "alt_km": 357.0716459068226,
        "timestamp": "2025-12-27T03:58:42.934250+00:00",
        "meta_object_name": "STARLINK-35688",
        "meta_object_id": "2025-293S",
        "meta_epoch": "2025-12-26T20:00:01.999008",
        "meta_mean_motion": 15.71723285,
        "meta_eccentricity": 0.0003733,
        "meta_inclination": 69.9967,
        "meta_ra_of_asc_node": 283.0646,
        "meta_arg_of_pericenter": 261.711,
        "meta_mean_anomaly": 49.7367,
        "meta_ephemeris_type": 0,
        "meta_classification_type": "U",
        "meta_norad_cat_id": 67019,
        "meta_element_set_no": 999,
        "meta_rev_at_epoch": 256,
        "meta_bstar": -0.014661,
        "meta_mean_motion_dot": -0.01681987,
        "meta_mean_motion_ddot": 0,
        "tle_line1": "1 67019U 25293S   25360.83335647 -.01681987  00000+0 -14661-1 0  9999",
        "tle_line2": "2 67019  69.9967 283.0646 0003733 261.7110  49.7367 15.71723285  2564"
      },
      "geometry": {
        "type": "Point",
        "coordinates": [
          -66.26745149058792,
          28.904579766012656
        ]
      }
    },
    {
      "type": "Feature",
      "properties": {
        "norad_id": 67020,
        "name": "STARLINK-36172",
        "group": "last-30-days",
        "lat": 31.150804824244915,
        "lon": -65.15292965791264,
        "alt_km": 356.85635905273375,
        "timestamp": "2025-12-27T03:58:42.934259+00:00",
        "meta_object_name": "STARLINK-36172",
        "meta_object_id": "2025-293T",
        "meta_epoch": "2025-12-26T20:00:01.999008",
        "meta_mean_motion": 15.71692458,
        "meta_eccentricity": 0.0003817,
        "meta_inclination": 69.9968,
        "meta_ra_of_asc_node": 283.0621,
        "meta_arg_of_pericenter": 263.0174,
        "meta_mean_anomaly": 50.9073,
        "meta_ephemeris_type": 0,
        "meta_classification_type": "U",
        "meta_norad_cat_id": 67020,
        "meta_element_set_no": 999,
        "meta_rev_at_epoch": 248,
        "meta_bstar": -0.014636,
        "meta_mean_motion_dot": -0.01677576,
        "meta_mean_motion_ddot": 0,
        "tle_line1": "1 67020U 25293T   25360.83335647 -.01677576  00000+0 -14636-1 0  9992",
        "tle_line2": "2 67020  69.9968 283.0621 0003817 263.0174  50.9073 15.71692458  2484"
      },
      "geometry": {
        "type": "Point",
        "coordinates": [
          -65.15292965791264,
          31.150804824244915
        ]
      }
    },
    {
      "type": "Feature",
      "properties": {
        "norad_id": 67021,
        "name": "STARLINK-36184",
        "group": "last-30-days",
        "lat": 33.26960412874091,
        "lon": -64.04794448947158,
        "alt_km": 356.6253948832564,
        "timestamp": "2025-12-27T03:58:42.934268+00:00",
        "meta_object_name": "STARLINK-36184",
        "meta_object_id": "2025-293U",
        "meta_epoch": "2025-12-26T20:00:01.999008",
        "meta_mean_motion": 15.71672038,
        "meta_eccentricity": 0.0003673,
        "meta_inclination": 69.9966,
        "meta_ra_of_asc_node": 283.0588,
        "meta_arg_of_pericenter": 261.6907,
        "meta_mean_anomaly": 54.577,
        "meta_ephemeris_type": 0,
        "meta_classification_type": "U",
        "meta_norad_cat_id": 67021,
        "meta_element_set_no": 999,
        "meta_rev_at_epoch": 248,
        "meta_bstar": -0.014678,
        "meta_mean_motion_dot": -0.01680421,
        "meta_mean_motion_ddot": 0,
        "tle_line1": "1 67021U 25293U   25360.83335647 -.01680421  00000+0 -14678-1 0  9992",
        "tle_line2": "2 67021  69.9966 283.0588 0003673 261.6907  54.5770 15.71672038  2489"
      },
      "geometry": {
        "type": "Point",
        "coordinates": [
          -64.04794448947158,
          33.26960412874091
        ]
      }
    },
    {
      "type": "Feature",
      "properties": {
        "norad_id": 67022,
        "name": "STARLINK-36209",
        "group": "last-30-days",
        "lat": 35.57627330317845,
        "lon": -62.774956980315885,
        "alt_km": 356.45239558127287,
        "timestamp": "2025-12-27T03:58:42.934277+00:00",
        "meta_object_name": "STARLINK-36209",
        "meta_object_id": "2025-293V",
        "meta_epoch": "2025-12-26T20:00:01.999008",
        "meta_mean_motion": 15.71635124,
        "meta_eccentricity": 0.0003729,
        "meta_inclination": 69.9965,
        "meta_ra_of_asc_node": 283.0558,
        "meta_arg_of_pericenter": 261.7932,
        "meta_mean_anomaly": 57.0504,
        "meta_ephemeris_type": 0,
        "meta_classification_type": "U",
        "meta_norad_cat_id": 67022,
        "meta_element_set_no": 999,
        "meta_rev_at_epoch": 248,
        "meta_bstar": -0.014679,
        "meta_mean_motion_dot": -0.01678211,
        "meta_mean_motion_ddot": 0,
        "tle_line1": "1 67022U 25293V   25360.83335647 -.01678211  00000+0 -14679-1 0  9998",
        "tle_line2": "2 67022  69.9965 283.0558 0003729 261.7932  57.0504 15.71635124  2485"
      },
      "geometry": {
        "type": "Point",
        "coordinates": [
          -62.774956980315885,
          35.57627330317845
        ]
      }
    },
    {
      "type": "Feature",
      "properties": {
        "norad_id": 67023,
        "name": "STARLINK-36191",
        "group": "last-30-days",
        "lat": 37.62523814162988,
        "lon": -61.57483112043158,
        "alt_km": 356.4846352958739,
        "timestamp": "2025-12-27T03:58:42.934288+00:00",
        "meta_object_name": "STARLINK-36191",
        "meta_object_id": "2025-293W",
        "meta_epoch": "2025-12-26T20:00:01.999008",
        "meta_mean_motion": 15.7156341,
        "meta_eccentricity": 0.0004023,
        "meta_inclination": 69.9965,
        "meta_ra_of_asc_node": 283.0524,
        "meta_arg_of_pericenter": 259.6805,
        "meta_mean_anomaly": 61.4829,
        "meta_ephemeris_type": 0,
        "meta_classification_type": "U",
        "meta_norad_cat_id": 67023,
        "meta_element_set_no": 999,
        "meta_rev_at_epoch": 237,
        "meta_bstar": -0.014148,
        "meta_mean_motion_dot": -0.0162011,
        "meta_mean_motion_ddot": 0,
        "tle_line1": "1 67023U 25293W   25360.83335647 -.01620110  00000+0 -14148-1 0  9995",
        "tle_line2": "2 67023  69.9965 283.0524 0004023 259.6805  61.4829 15.71563410  2377"
      },
      "geometry": {
        "type": "Point",
        "coordinates": [
          -61.57483112043158,
          37.62523814162988
        ]
      }
    },
    {
      "type": "Feature",
      "properties": {
        "norad_id": 67024,
        "name": "STARLINK-36192",
        "group": "last-30-days",
        "lat": 39.80900900818776,
        "lon": -60.20813299367812,
        "alt_km": 355.88218934037286,
        "timestamp": "2025-12-27T03:58:42.934298+00:00",
        "meta_object_name": "STARLINK-36192",
        "meta_object_id": "2025-293X",
        "meta_epoch": "2025-12-26T14:00:04.000032",
        "meta_mean_motion": 15.72434304,
        "meta_eccentricity": 0.0003784,
        "meta_inclination": 69.9959,
        "meta_ra_of_asc_node": 283.7562,
        "meta_arg_of_pericenter": 263.438,
        "meta_mean_anomaly": 85.931,
        "meta_ephemeris_type": 0,
        "meta_classification_type": "U",
        "meta_norad_cat_id": 67024,
        "meta_element_set_no": 999,
        "meta_rev_at_epoch": 244,
        "meta_bstar": -0.01362774,
        "meta_mean_motion_dot": -0.01619409,
        "meta_mean_motion_ddot": 0,
        "tle_line1": "1 67024U 25293X   25360.58337963 -.01619409  00000+0 -13628-1 0  9992",
        "tle_line2": "2 67024  69.9959 283.7562 0003784 263.4380  85.9310 15.72434304  2448"
      },
      "geometry": {
        "type": "Point",
        "coordinates": [
          -60.20813299367812,
          39.80900900818776
        ]
      }
    },
    {
      "type": "Feature",
      "properties": {
        "norad_id": 67025,
        "name": "STARLINK-36178",
        "group": "last-30-days",
        "lat": 41.7352016169587,
        "lon": -58.92387784088584,
        "alt_km": 355.82717844099716,
        "timestamp": "2025-12-27T03:58:42.934307+00:00",
        "meta_object_name": "STARLINK-36178",
        "meta_object_id": "2025-293Y",
        "meta_epoch": "2025-12-26T20:00:01.999008",
        "meta_mean_motion": 15.71577231,
        "meta_eccentricity": 0.0003739,
        "meta_inclination": 69.9969,
        "meta_ra_of_asc_node": 283.0475,
        "meta_arg_of_pericenter": 262.3484,
        "meta_mean_anomaly": 63.4147,
        "meta_ephemeris_type": 0,
        "meta_classification_type": "U",
        "meta_norad_cat_id": 67025,
        "meta_element_set_no": 999,
        "meta_rev_at_epoch": 248,
        "meta_bstar": -0.014749,
        "meta_mean_motion_dot": -0.01681669,
        "meta_mean_motion_ddot": 0,
        "tle_line1": "1 67025U 25293Y   25360.83335647 -.01681669  00000+0 -14749-1 0  9990",
        "tle_line2": "2 67025  69.9969 283.0475 0003739 262.3484  63.4147 15.71577231  2488"
      },
      "geometry": {
        "type": "Point",
        "coordinates": [
          -58.92387784088584,
          41.7352016169587
        ]
      }
    }
  ]
}